{
    "links": {
        "self": "http://www.neowsapp.com/rest/v1/neo/3471519?api_key=iIulBulltgU6a56xZRHN4H3l9WmuAYTsLGpBGhQ2"
    },
    "id": "3471519",
    "neo_reference_id": "3471519",
    "name": "(2009 TL8)",
    "designation": "2009 TL8",
    "nasa_jpl_url": "http://ssd.jpl.nasa.gov/sbdb.cgi?sstr=3471519",
    "absolute_magnitude_h": 22.2,
    "estimated_diameter": {
        "kilometers": {
            "estimated_diameter_min": 0.096506147,
            "estimated_diameter_max": 0.2157943048
        },
        "meters": {
            "estimated_diameter_min": 96.5061469579,
            "estimated_diameter_max": 215.7943048444
        },
        "miles": {
            "estimated_diameter_min": 0.059966121,
            "estimated_diameter_max": 0.134088323
        },
        "feet": {
            "estimated_diameter_min": 316.6212271853,
            "estimated_diameter_max": 707.9865871058
        }
    },
    "is_potentially_hazardous_asteroid": false,
    "close_approach_data": [
        {
            "close_approach_date": "2002-04-28",
            "close_approach_date_full": "2002-Apr-28 18:15",
            "epoch_date_close_approach": 1020017700000,
            "relative_velocity": {
                "kilometers_per_second": "11.8738311897",
                "kilometers_per_hour": "42745.7922829038",
                "miles_per_hour": "26560.5729882299"
            },
            "miss_distance": {
                "astronomical": "0.0808458251",
                "lunar": "31.4490259639",
                "kilometers": "12094363.233352537",
                "miles": "7515088.8339055306"
            },
            "orbiting_body": "Mars"
        },
        {
            "close_approach_date": "2009-10-05",
            "close_approach_date_full": "2009-Oct-05 03:30",
            "epoch_date_close_approach": 1254713400000,
            "relative_velocity": {
                "kilometers_per_second": "6.6239570604",
                "kilometers_per_hour": "23846.2454174663",
                "miles_per_hour": "14817.1295484251"
            },
            "miss_distance": {
                "astronomical": "0.1214298013",
                "lunar": "47.2361927057",
                "kilometers": "18165639.629003231",
                "miles": "11287605.0522613478"
            },
            "orbiting_body": "Earth"
        },
        {
            "close_approach_date": "2117-09-01",
            "close_approach_date_full": "2117-Sep-01 06:19",
            "epoch_date_close_approach": 4659920340000,
            "relative_velocity": {
                "kilometers_per_second": "11.6606023833",
                "kilometers_per_hour": "41978.168579983",
                "miles_per_hour": "26083.6014712677"
            },
            "miss_distance": {
                "astronomical": "0.3004982248",
                "lunar": "116.8938094472",
                "kilometers": "44953894.368861176",
                "miles": "27933054.6878531888"
            },
            "orbiting_body": "Earth"
        }
    ],
    "orbital_data": {
        "orbit_id": "10",
        "orbit_determination_date": "2017-04-06 08:59:39",
        "first_observation_date": "2009-10-15",
        "last_observation_date": "2009-11-20",
        "data_arc_in_days": 36,
        "observations_used": 28,
        "orbit_uncertainty": "7",
        "minimum_orbit_intersection": ".101878",
        "jupiter_tisserand_invariant": "3.255",
        "epoch_osculation": "2459000.5",
        "eccentricity": ".5609675603130826",
        "semi_major_axis": "2.453154332042943",
        "inclination": "4.110570228842198",
        "ascending_node_longitude": "293.8492956770838",
        "orbital_period": "1403.413771091274",
        "perihelion_distance": "1.077014331325344",
        "perihelion_argument": "71.31741180818101",
        "aphelion_distance": "3.829294332760542",
        "perihelion_time": "2459321.424386928422",
        "mean_anomaly": "277.6773224874405",
        "mean_motion": ".2565173631722805",
        "equinox": "J2000",
        "orbit_class": {
            "orbit_class_type": "AMO",
            "orbit_class_description": "Near-Earth asteroid orbits similar to that of 1221 Amor",
            "orbit_class_range": "1.017 AU < q (perihelion) < 1.3 AU"
        }
    },
    "is_sentry_object": false
}